{
  "norad_id": 60406,
  "name": "STARLINK-11150 [DTC]",
  "history": [
    {
      "epoch": "2026-04-10T22:15:06.573024Z",
      "apogee_km": 360.5829678778664,
      "perigee_km": 358.90388807521504,
      "latitude_deg": -4.858572430073622e-05,
      "longitude_deg": 114.59139408746853,
      "height_km": 360.75911037913073,
      "semi_major_axis_km": 6737.880427976541,
      "eccentricity": 0.0001246,
      "inclination_deg": 53.1592,
      "raan_deg": 287.5228,
      "arg_perigee_deg": 96.9986,
      "mean_anomaly_deg": 263.1173,
      "mean_motion_rev_day": 15.69704172
    },
    {
      "epoch": "2026-04-12T18:33:57.013920Z",
      "apogee_km": 360.3415776977272,
      "perigee_km": 359.18158107829913,
      "latitude_deg": 4.7649798961921034e-05,
      "longitude_deg": 158.95928147987152,
      "height_km": 360.3501288210514,
      "semi_major_axis_km": 6737.898579388013,
      "eccentricity": 8.608e-05,
      "inclination_deg": 53.159,
      "raan_deg": 278.4207,
      "arg_perigee_deg": 55.8599,
      "mean_anomaly_deg": 304.2501,
      "mean_motion_rev_day": 15.69697829
    },
    {
      "epoch": "2026-04-14T20:59:30.179904Z",
      "apogee_km": 360.31086104875885,
      "perigee_km": 359.1694646573724,
      "latitude_deg": 2.2125686508654608e-06,
      "longitude_deg": 110.14204054051362,
      "height_km": 360.33282561798285,
      "semi_major_axis_km": 6737.877162853066,
      "eccentricity": 8.47e-05,
      "inclination_deg": 53.1578,
      "raan_deg": 268.0626,
      "arg_perigee_deg": 55.7385,
      "mean_anomaly_deg": 304.3713,
      "mean_motion_rev_day": 15.69705313
    },
    {
      "epoch": "2026-04-15T16:51:23.706144Z",
      "apogee_km": 360.4351948866615,
      "perigee_km": 359.0498868530585,
      "latitude_deg": 6.81483981514438e-05,
      "longitude_deg": 167.27374410399443,
      "height_km": 360.5941206664904,
      "semi_major_axis_km": 6737.87954086986,
      "eccentricity": 0.0001028,
      "inclination_deg": 53.158,
      "raan_deg": 263.9831,
      "arg_perigee_deg": 84.8686,
      "mean_anomaly_deg": 275.245,
      "mean_motion_rev_day": 15.69704482
    },
    {
      "epoch": "2026-04-16T20:21:41.444640Z",
      "apogee_km": 360.2307138666429,
      "perigee_km": 359.1216698152657,
      "latitude_deg": 1.463395178274821e-05,
      "longitude_deg": 107.92010880559565,
      "height_km": 360.5441718727865,
      "semi_major_axis_km": 6737.813191840954,
      "eccentricity": 8.23e-05,
      "inclination_deg": 53.1573,
      "raan_deg": 258.333,
      "arg_perigee_deg": 85.2665,
      "mean_anomaly_deg": 274.8447,
      "mean_motion_rev_day": 15.69727668
    },
    {
      "epoch": "2026-04-17T13:10:13.480896Z",
      "apogee_km": 360.25084553135457,
      "perigee_km": 359.2214332731164,
      "latitude_deg": -3.7074348021281324e-07,
      "longitude_deg": -148.35770280288227,
      "height_km": 360.69796820996385,
      "semi_major_axis_km": 6737.873139402235,
      "eccentricity": 7.639e-05,
      "inclination_deg": 53.1575,
      "raan_deg": 254.879,
      "arg_perigee_deg": 95.3507,
      "mean_anomaly_deg": 264.7598,
      "mean_motion_rev_day": 15.69706719
    },
    {
      "epoch": "2026-04-18T21:15:33.277248Z",
      "apogee_km": 360.36003260903726,
      "perigee_km": 358.98147714238894,
      "latitude_deg": 3.431072276425566e-05,
      "longitude_deg": 82.40149723569748,
      "height_km": 360.7267787395449,
      "semi_major_axis_km": 6737.807754875713,
      "eccentricity": 0.0001023,
      "inclination_deg": 53.1572,
      "raan_deg": 248.2885,
      "arg_perigee_deg": 101.9346,
      "mean_anomaly_deg": 258.1787,
      "mean_motion_rev_day": 15.69729568
    },
    {
      "epoch": "2026-04-19T14:04:06.200832Z",
      "apogee_km": 360.167562440256,
      "perigee_km": 359.3185895506804,
      "latitude_deg": 4.922316198658129e-05,
      "longitude_deg": -173.87540106813424,
      "height_km": 360.5244239464325,
      "semi_major_axis_km": 6737.880075995468,
      "eccentricity": 6.3e-05,
      "inclination_deg": 53.1593,
      "raan_deg": 244.8391,
      "arg_perigee_deg": 71.7569,
      "mean_anomaly_deg": 288.3518,
      "mean_motion_rev_day": 15.69704295
    },
    {
      "epoch": "2026-04-19T14:04:06.201696Z",
      "apogee_km": 360.1678319554585,
      "perigee_km": 359.3183200354779,
      "latitude_deg": 4.5705714309013466e-05,
      "longitude_deg": -173.87540729847115,
      "height_km": 360.52433957788656,
      "semi_major_axis_km": 6737.880075995468,
      "eccentricity": 6.304e-05,
      "inclination_deg": 53.1593,
      "raan_deg": 244.8391,
      "arg_perigee_deg": 71.7569,
      "mean_anomaly_deg": 288.3518,
      "mean_motion_rev_day": 15.69704295
    },
    {
      "epoch": "2026-04-21T13:26:18.722688Z",
      "apogee_km": 360.33718408369623,
      "perigee_km": 359.2119528517633,
      "latitude_deg": -2.612854510782684e-06,
      "longitude_deg": -176.10754100972076,
      "height_km": 360.3568410603358,
      "semi_major_axis_km": 6737.91156846773,
      "eccentricity": 8.35e-05,
      "inclination_deg": 53.1592,
      "raan_deg": 235.1046,
      "arg_perigee_deg": 53.8536,
      "mean_anomaly_deg": 306.2559,
      "mean_motion_rev_day": 15.6969329
    }
  ]
}